{
  "norad_id": 55770,
  "name": "STARLINK-5557",
  "history": [
    {
      "epoch": "2026-03-28T15:48:03.665664Z",
      "apogee_km": 574.1879505439783,
      "perigee_km": 569.8561944004705,
      "latitude_deg": 6.693001366585045e-06,
      "longitude_deg": 113.57096823005197,
      "height_km": 574.4582852956413,
      "semi_major_axis_km": 6950.159072472225,
      "eccentricity": 0.00031163,
      "inclination_deg": 70.0006,
      "raan_deg": 176.6619,
      "arg_perigee_deg": 269.7728,
      "mean_anomaly_deg": 90.3074,
      "mean_motion_rev_day": 14.98340936
    }
  ]
}